{
  "type": "FeatureCollection",
  "features": [
    {
      "type": "Feature",
      "properties": {
        "norad_id": 34681,
        "name": "COSMOS 2251 DEB",
        "group": "cosmos-2251-debris",
        "lat": 54.17549865304009,
        "lon": 71.52054876220019,
        "alt_km": 629.0539950212051,
        "timestamp": "2025-12-20T14:38:02.363992+00:00",
        "meta_object_name": "COSMOS 2251 DEB",
        "meta_object_id": "1993-036YB",
        "meta_epoch": "2025-12-20T05:03:03.083904",
        "meta_mean_motion": 14.8337722,
        "meta_eccentricity": 0.00256787,
        "meta_inclination": 74.0634,
        "meta_ra_of_asc_node": 275.6275,
        "meta_arg_of_pericenter": 331.3833,
        "meta_mean_anomaly": 179.5165,
        "meta_ephemeris_type": 0,
        "meta_classification_type": "U",
        "meta_norad_cat_id": 34681,
        "meta_element_set_no": 999,
        "meta_rev_at_epoch": 89381,
        "meta_bstar": 0.00092860454,
        "meta_mean_motion_dot": 7.634e-05,
        "meta_mean_motion_ddot": 0,
        "tle_line1": "1 34681U 93036YB  25354.21045236  .00007634  00000+0  92860-3 0  9992",
        "tle_line2": "2 34681  74.0634 275.6275 0025678 331.3833 179.5165 14.83377220893814"
      },
      "geometry": {
        "type": "Point",
        "coordinates": [
          71.52054876220019,
          54.17549865304009
        ]
      }
    },
    {
      "type": "Feature",
      "properties": {
        "norad_id": 34682,
        "name": "COSMOS 2251 DEB",
        "group": "cosmos-2251-debris",
        "lat": -73.61808884339614,
        "lon": -35.2210416128045,
        "alt_km": 698.3549462040455,
        "timestamp": "2025-12-20T14:38:02.364002+00:00",
        "meta_object_name": "COSMOS 2251 DEB",
        "meta_object_id": "1993-036YC",
        "meta_epoch": "2025-12-19T23:25:33.062304",
        "meta_mean_motion": 14.58941947,
        "meta_eccentricity": 0.0017987,
        "meta_inclination": 74.0399,
        "meta_ra_of_asc_node": 69.2067,
        "meta_arg_of_pericenter": 201.6181,
        "meta_mean_anomaly": 337.6822,
        "meta_ephemeris_type": 0,
        "meta_classification_type": "U",
        "meta_norad_cat_id": 34682,
        "meta_element_set_no": 999,
        "meta_rev_at_epoch": 88791,
        "meta_bstar": 0.00048085,
        "meta_mean_motion_dot": 2.231e-05,
        "meta_mean_motion_ddot": 0,
        "tle_line1": "1 34682U 93036YC  25353.97607711  .00002231  00000+0  48085-3 0  9995",
        "tle_line2": "2 34682  74.0399  69.2067 0017987 201.6181 337.6822 14.58941947887914"
      },
      "geometry": {
        "type": "Point",
        "coordinates": [
          -35.2210416128045,
          -73.61808884339614
        ]
      }
    },
    {
      "type": "Feature",
      "properties": {
        "norad_id": 34683,
        "name": "COSMOS 2251 DEB",
        "group": "cosmos-2251-debris",
        "lat": -36.08330973866828,
        "lon": -90.81846127431221,
        "alt_km": 673.09452619269,
        "timestamp": "2025-12-20T14:38:02.364012+00:00",
        "meta_object_name": "COSMOS 2251 DEB",
        "meta_object_id": "1993-036YD",
        "meta_epoch": "2025-12-19T23:41:01.845024",
        "meta_mean_motion": 14.64573763,
        "meta_eccentricity": 0.0017747,
        "meta_inclination": 74.0299,
        "meta_ra_of_asc_node": 78.3328,
        "meta_arg_of_pericenter": 193.4937,
        "meta_mean_anomaly": 341.1122,
        "meta_ephemeris_type": 0,
        "meta_classification_type": "U",
        "meta_norad_cat_id": 34683,
        "meta_element_set_no": 999,
        "meta_rev_at_epoch": 88454,
        "meta_bstar": 0.00077602,
        "meta_mean_motion_dot": 4.1e-05,
        "meta_mean_motion_ddot": 0,
        "tle_line1": "1 34683U 93036YD  25353.98682691  .00004100  00000+0  77602-3 0  9991",
        "tle_line2": "2 34683  74.0299  78.3328 0017747 193.4937 341.1122 14.64573763884549"
      },
      "geometry": {
        "type": "Point",
        "coordinates": [
          -90.81846127431221,
          -36.08330973866828
        ]
      }
    },
    {
      "type": "Feature",
      "properties": {
        "norad_id": 34685,
        "name": "COSMOS 2251 DEB",
        "group": "cosmos-2251-debris",
        "lat": 9.441935598116261,
        "lon": -48.911225452960366,
        "alt_km": 698.6190866243915,
        "timestamp": "2025-12-20T14:38:02.364022+00:00",
        "meta_object_name": "COSMOS 2251 DEB",
        "meta_object_id": "1993-036YF",
        "meta_epoch": "2025-12-20T04:15:08.790048",
        "meta_mean_motion": 14.57566908,
        "meta_eccentricity": 0.00142681,
        "meta_inclination": 74.029,
        "meta_ra_of_asc_node": 134.6408,
        "meta_arg_of_pericenter": 239.3395,
        "meta_mean_anomaly": 182.0329,
        "meta_ephemeris_type": 0,
        "meta_classification_type": "U",
        "meta_norad_cat_id": 34685,
        "meta_element_set_no": 999,
        "meta_rev_at_epoch": 88640,
        "meta_bstar": 0.00065445712,
        "meta_mean_motion_dot": 2.955e-05,
        "meta_mean_motion_ddot": 0,
        "tle_line1": "1 34685U 93036YF  25354.17718507  .00002955  00000+0  65446-3 0  9990",
        "tle_line2": "2 34685  74.0290 134.6408 0014268 239.3395 182.0329 14.57566908886403"
      },
      "geometry": {
        "type": "Point",
        "coordinates": [
          -48.911225452960366,
          9.441935598116261
        ]
      }
    },
    {
      "type": "Feature",
      "properties": {
        "norad_id": 34689,
        "name": "COSMOS 2251 DEB",
        "group": "cosmos-2251-debris",
        "lat": -45.300861574413766,
        "lon": -167.04422951944767,
        "alt_km": 749.1666246352625,
        "timestamp": "2025-12-20T14:38:02.364032+00:00",
        "meta_object_name": "COSMOS 2251 DEB",
        "meta_object_id": "1993-036YK",
        "meta_epoch": "2025-12-15T15:20:16.539648",
        "meta_mean_motion": 14.04491905,
        "meta_eccentricity": 0.02275051,
        "meta_inclination": 74.0901,
        "meta_ra_of_asc_node": 218.3502,
        "meta_arg_of_pericenter": 286.6099,
        "meta_mean_anomaly": 101.262,
        "meta_ephemeris_type": 0,
        "meta_classification_type": "U",
        "meta_norad_cat_id": 34689,
        "meta_element_set_no": 999,
        "meta_rev_at_epoch": 84382,
        "meta_bstar": 0.0020174062,
        "meta_mean_motion_dot": 4.031e-05,
        "meta_mean_motion_ddot": 0,
        "tle_line1": "1 34689U 93036YK  25349.63908032  .00004031  00000+0  20174-2 0  9998",
        "tle_line2": "2 34689  74.0901 218.3502 0227505 286.6099 101.2620 14.04491905843829"
      },
      "geometry": {
        "type": "Point",
        "coordinates": [
          -167.04422951944767,
          -45.300861574413766
        ]
      }
    },
    {
      "type": "Feature",
      "properties": {
        "norad_id": 34721,
        "name": "COSMOS 2251 DEB",
        "group": "cosmos-2251-debris",
        "lat": 53.416991916660386,
        "lon": 109.7299019380294,
        "alt_km": 994.3405974166708,
        "timestamp": "2025-12-20T14:38:02.364042+00:00",
        "meta_object_name": "COSMOS 2251 DEB",
        "meta_object_id": "1993-036YP",
        "meta_epoch": "2025-12-19T22:50:41.702784",
        "meta_mean_motion": 13.96880423,
        "meta_eccentricity": 0.0223098,
        "meta_inclination": 73.9231,
        "meta_ra_of_asc_node": 313.7346,
        "meta_arg_of_pericenter": 251.3855,
        "meta_mean_anomaly": 166.8871,
        "meta_ephemeris_type": 0,
        "meta_classification_type": "U",
        "meta_norad_cat_id": 34721,
        "meta_element_set_no": 999,
        "meta_rev_at_epoch": 85250,
        "meta_bstar": 0.00080586,
        "meta_mean_motion_dot": 1.358e-05,
        "meta_mean_motion_ddot": 0,
        "tle_line1": "1 34721U 93036YP  25353.95187156  .00001358  00000+0  80586-3 0  9994",
        "tle_line2": "2 34721  73.9231 313.7346 0223098 251.3855 166.8871 13.96880423852505"
      },
      "geometry": {
        "type": "Point",
        "coordinates": [
          109.7299019380294,
          53.416991916660386
        ]
      }
    },
    {
      "type": "Feature",
      "properties": {
        "norad_id": 34722,
        "name": "COSMOS 2251 DEB",
        "group": "cosmos-2251-debris",
        "lat": 54.58665807947556,
        "lon": -13.957973056562604,
        "alt_km": 966.4733416868185,
        "timestamp": "2025-12-20T14:38:02.364052+00:00",
        "meta_object_name": "COSMOS 2251 DEB",
        "meta_object_id": "1993-036YQ",
        "meta_epoch": "2025-12-20T04:13:48.185760",
        "meta_mean_motion": 14.11955429,
        "meta_eccentricity": 0.0166735,
        "meta_inclination": 73.8732,
        "meta_ra_of_asc_node": 322.8034,
        "meta_arg_of_pericenter": 247.0651,
        "meta_mean_anomaly": 128.1278,
        "meta_ephemeris_type": 0,
        "meta_classification_type": "U",
        "meta_norad_cat_id": 34722,
        "meta_element_set_no": 999,
        "meta_rev_at_epoch": 86350,
        "meta_bstar": 0.00053588842,
        "meta_mean_motion_dot": 1.09e-05,
        "meta_mean_motion_ddot": 0,
        "tle_line1": "1 34722U 93036YQ  25354.17625215  .00001090  00000+0  53589-3 0  9999",
        "tle_line2": "2 34722  73.8732 322.8034 0166735 247.0651 128.1278 14.11955429863507"
      },
      "geometry": {
        "type": "Point",
        "coordinates": [
          -13.957973056562604,
          54.58665807947556
        ]
      }
    }
  ]
}